NORAD_CAT_ID,OBJECT_NAME,OBJECT_TYPE,EPOCH,MEAN_MOTION,ECCENTRICITY,INCLINATION,RA_OF_ASC_NODE,ARG_OF_PERICENTER,MEAN_ANOMALY,BSTAR,MEAN_MOTION_DOT,MEAN_MOTION_DDOT,TLE_LINE0,TLE_LINE1,TLE_LINE2,SEMIMAJOR_AXIS,PERIOD,APOGEE,PERIGEE,DECAYED
50815.0,STARLINK-3234,PAYLOAD,2022-06-15 19:52:16,15.088549100000002,0.0002568,53.2171,167.2288,48.1934,311.9277,0.00016468,2.335e-05,0.0,0 STARLINK-3234,1 50815U 22001N   22166.82796770  .00002335  00000-0  16468-3 0  9998,2 50815  53.2171 167.2288 0002568  48.1934 311.9277 15.08854910 24663,6917.835,95.437,541.476,537.923,0.0
50815.0,STARLINK-3234,PAYLOAD,2022-06-16 00:38:26,15.08846275,0.0002555,53.2172,166.3365,48.9609,311.1604,0.00019251,2.777e-05,0.0,0 STARLINK-3234,1 50815U 22001N   22167.02669128  .00002777  00000-0  19251-3 0  9990,2 50815  53.2172 166.3365 0002555  48.9609 311.1604 15.08846275 24697,6917.861,95.437,541.494,537.9590000000002,0.0
50815.0,STARLINK-3234,PAYLOAD,2022-06-19 04:56:55,15.08850867,0.0002497,53.2171,152.0631,51.8312,308.2905,0.00010892,1.446e-05,0.0,0 STARLINK-3234,1 50815U 22001N   22170.20619661  .00001446  00000-0  10892-3 0  9995,2 50815  53.2171 152.0631 0002497  51.8312 308.2905 15.08850867 25170,6917.847,95.437,541.44,537.985,0.0
50815.0,STARLINK-3234,PAYLOAD,2022-06-20 04:47:43,15.08837855,0.000228,53.2193,147.6051,46.028,314.09,0.00010165,1.33e-05,0.0,0 STARLINK-3234,1 50815U 22001N   22171.19980343  .00001330  00000-0  10165-3 0  9997,2 50815  53.2193 147.6051 0002280  46.0280 314.0900 15.08837855 26599,6917.887,95.438,541.3290000000002,538.175,0.0
50815.0,STARLINK-3234,PAYLOAD,2022-06-20 07:58:29,15.08842879,0.0002281,53.2166,147.0088,50.7986,309.3208,4.0819e-05,3.61e-06,0.0,0 STARLINK-3234,1 50815U 22001N   22171.33228125  .00000361  00000-0  40819-4 0  9999,2 50815  53.2166 147.0088 0002281  50.7986 309.3208 15.08842879 25341,6917.871999999999,95.437,541.315,538.159,0.0
50815.0,STARLINK-3234,PAYLOAD,2022-06-20 15:55:25,15.08838259,0.0002239,53.2172,145.52100000000004,49.0791,311.0395,-1.2826e-05,-4.92e-06,0.0,0 STARLINK-3234,1 50815U 22001N   22171.66348571 -.00000492  00000-0 -12826-4 0  9997,2 50815  53.2172 145.5210 0002239  49.0791 311.0395 15.08838259 25395,6917.886,95.438,541.3,538.202,0.0
50815.0,STARLINK-3234,PAYLOAD,2022-06-21 04:38:31,15.0883139,0.0002409,53.2168,143.1423,52.5342,307.5869,-9.984e-05,-1.877e-05,0.0,0 STARLINK-3234,1 50815U 22001N   22172.19341466 -.00001877  00000-0 -99840-4 0  9991,2 50815  53.2168 143.1423 0002409  52.5342 307.5869 15.08831390 26745,6917.906999999997,95.438,541.438,538.105,0.0
50815.0,STARLINK-3234,PAYLOAD,2022-06-21 07:49:17,15.08829104,0.0002434,53.2171,142.548,52.5538,307.5675,-9.0327e-05,-1.725e-05,0.0,0 STARLINK-3234,1 50815U 22001N   22172.32589668 -.00001725  00000-0 -90327-4 0  9997,2 50815  53.2171 142.5480 0002434  52.5538 307.5675 15.08829104 25496,6917.9140000000025,95.438,541.4630000000002,538.095,0.0
50815.0,STARLINK-3234,PAYLOAD,2022-06-21 22:07:45,15.08832579,0.0002361,53.2175,139.8718,52.0528,308.0677,3.8535000000000005e-06,-2.27e-06,0.0,0 STARLINK-3234,1 50815U 22001N   22172.92205539 -.00000227  00000-0  38535-5 0  9994,2 50815  53.2175 139.8718 0002361  52.0528 308.0677 15.08832579 25584,6917.903,95.438,541.401,538.135,0.0
50815.0,STARLINK-3234,PAYLOAD,2022-06-22 04:29:17,15.08835806,0.0002342,53.2175,138.6821,52.9164,307.2042,3.2557e-05,2.3e-06,0.0,0 STARLINK-3234,1 50815U 22001N   22173.18701376  .00000230  00000-0  32557-4 0  9993,2 50815  53.2175 138.6821 0002342  52.9164 307.2042 15.08835806 26898,6917.893,95.438,541.378,538.138,0.0
50815.0,STARLINK-3234,PAYLOAD,2022-06-22 07:40:04,15.08837565,0.0002348,53.2179,138.0881,51.8626,308.2578,1.1783e-05,-1.01e-06,0.0,0 STARLINK-3234,1 50815U 22001N   22173.31949409 -.00000101  00000-0  11783-4 0  9995,2 50815  53.2179 138.0881 0002348  51.8626 308.2578 15.08837565 25640,6917.888000000001,95.438,541.377,538.129,0.0
50815.0,STARLINK-3234,PAYLOAD,2022-06-23 04:20:06,15.08825846,0.0002315,53.2174,134.222,53.2328,306.8876,8.688200000000001e-05,1.094e-05,0.0,0 STARLINK-3234,1 50815U 22001N   22174.18062560  .00001094  00000-0  86882-4 0  9998,2 50815  53.2174 134.2220 0002315  53.2328 306.8876 15.08825846 27049,6917.924,95.438,541.39,538.187,0.0
50815.0,STARLINK-3234,PAYLOAD,2022-06-23 07:30:52,15.08827967,0.0002281,53.2175,133.6272,51.6092,308.5105,6.9719e-05,8.21e-06,0.0,0 STARLINK-3234,1 50815U 22001N   22174.31310591  .00000821  00000-0  69719-4 0  9990,2 50815  53.2175 133.6272 0002281  51.6092 308.5105 15.08827967 25792,6917.917,95.438,541.36,538.2040000000002,0.0
50815.0,STARLINK-3234,PAYLOAD,2022-06-24 04:10:51,15.08847181,0.0002154,53.2183,129.7618,49.2239,310.894,0.00016027,2.264e-05,0.0,0 STARLINK-3234,1 50815U 22001N   22175.17421199  .00002264  00000-0  16027-3 0  9998,2 50815  53.2183 129.7618 0002154  49.2239 310.8940 15.08847181 27195,6917.858,95.437,541.214,538.2330000000002,0.0
50815.0,STARLINK-3234,PAYLOAD,2022-06-24 13:43:11,15.08833542,0.0002342,53.2185,127.9771,49.458,310.6616,4.3975e-05,4.11e-06,0.0,0 STARLINK-3234,1 50815U 22001N   22175.57166496  .00000411  00000-0  43975-4 0  9993,2 50815  53.2185 127.9771 0002342  49.4580 310.6616 15.08833542 27258,6917.9,95.438,541.385,538.145,0.0
50815.0,STARLINK-3234,PAYLOAD,2022-06-24 20:04:44,15.0883372,0.0002129,53.2182,126.7885,48.4861,311.6313,7.8768e-05,9.65e-06,0.0,0 STARLINK-3234,1 50815U 22001N   22175.83662388  .00000965  00000-0  78768-4 0  9995,2 50815  53.2182 126.7885 0002129  48.4861 311.6313 15.08833720 26029,6917.9,95.438,541.237,538.2919999999998,0.0
50815.0,STARLINK-3234,PAYLOAD,2022-06-25 04:01:39,15.0884546,0.0001919,53.2176,125.3028,47.6535,312.4619,-8.323e-06,-4.21e-06,0.0,0 STARLINK-3234,1 50815U 22001N   22176.16781951 -.00000421  00000-0 -83230-5 0  9990,2 50815  53.2176 125.3028 0001919  47.6535 312.4619 15.08845460 27349,6917.864000000001,95.437,541.056,538.401,0.0
50815.0,STARLINK-3234,PAYLOAD,2022-06-25 07:12:25,15.08847546,0.0001938,53.2176,124.7079,47.6915,312.4241,1.07e-05,-1.18e-06,0.0,0 STARLINK-3234,1 50815U 22001N   22176.30029694 -.00000118  00000-0  10700-4 0  9998,2 50815  53.2176 124.7079 0001938  47.6915 312.4241 15.08847546 26090,6917.857,95.437,541.063,538.382,0.0
50815.0,STARLINK-3234,PAYLOAD,2022-06-25 19:55:30,15.08849888,0.0001961,53.2177,122.3291,47.2106,312.9051,4.8374e-05,4.82e-06,0.0,0 STARLINK-3234,1 50815U 22001N   22176.83021131  .00000482  00000-0  48374-4 0  9995,2 50815  53.2177 122.3291 0001961  47.2106 312.9051 15.08849888 26179,6917.85,95.437,541.072,538.359,0.0
50815.0,STARLINK-3234,PAYLOAD,2022-06-26 03:52:25,15.08855558,0.0002021,53.2176,120.8425,48.6724,311.4442,0.00012979,1.779e-05,0.0,0 STARLINK-3234,1 50815U 22001N   22177.16140349  .00001779  00000-0  12979-3 0  9996,2 50815  53.2176 120.8425 0002021  48.6724 311.4442 15.08855558 27494,6917.833000000001,95.437,541.096,538.3,0.0
50815.0,STARLINK-3234,PAYLOAD,2022-06-26 13:24:44,15.08844132,0.0002156,53.2179,119.0573,49.4792,310.6388,9.0864e-05,1.158e-05,0.0,0 STARLINK-3234,1 50815U 22001N   22177.55884979  .00001158  00000-0  90864-4 0  9994,2 50815  53.2179 119.0573 0002156  49.4792 310.6388 15.08844132 27557,6917.868,95.437,541.224,538.241,0.0
50815.0,STARLINK-3234,PAYLOAD,2022-06-26 19:46:17,15.0884082,0.000218,53.218,117.868,51.6756,308.4432,4.4769e-05,4.24e-06,0.0,0 STARLINK-3234,1 50815U 22001N   22177.82381300  .00000424  00000-0  44769-4 0  9992,2 50815  53.2180 117.8680 0002180  51.6756 308.4432 15.08840820 26325,6917.878000000002,95.438,541.251,538.235,0.0
50815.0,STARLINK-3234,PAYLOAD,2022-06-27 03:43:13,15.08836836,0.0002084,53.218,116.3813,50.5772,309.5404,-1.5077e-05,-5.28e-06,0.0,0 STARLINK-3234,1 50815U 22001N   22178.15501683 -.00000528  00000-0 -15077-4 0  9994,2 50815  53.2180 116.3813 0002084  50.5772 309.5404 15.08836836 27645,6917.89,95.438,541.197,538.313,0.0
50815.0,STARLINK-3234,PAYLOAD,2022-06-27 19:37:04,15.08845806,0.0002116,53.218,113.4073,51.9238,308.1945,5.4712e-06,-2.01e-06,0.0,0 STARLINK-3234,1 50815U 22001N   22178.81740862 -.00000201  00000-0  54712-5 0  9998,2 50815  53.2180 113.4073 0002116  51.9238 308.1945 15.08845806 26471,6917.863,95.437,541.191,538.264,0.0
50815.0,STARLINK-3234,PAYLOAD,2022-06-28 01:58:36,15.08849031,0.0002133,53.218,112.2183,52.0762,308.0422,1.5579e-05,-4e-07,0.0,0 STARLINK-3234,1 50815U 22001N   22179.08236486 -.00000040  00000-0  15579-4 0  9998,2 50815  53.2180 112.2183 0002133  52.0762 308.0422 15.08849031 27781,6917.853,95.437,541.193,538.242,0.0
50815.0,STARLINK-3234,PAYLOAD,2022-06-28 13:06:19,15.088381,0.0001968,53.2188,110.1364,53.3513,306.766,-0.00020303,-3.518e-05,0.0,0 STARLINK-3234,1 50815U 22001N   22179.54605758 -.00003518  00000-0 -20303-3 0  9995,2 50815  53.2188 110.1364 0001968  53.3513 306.7660 15.08838100 26581,6917.886,95.438,541.113,538.39,0.0
50815.0,STARLINK-3234,PAYLOAD,2022-06-29 05:00:10,15.08829518,0.0002041,53.218,107.1637,47.4452,312.6713,1.4428e-05,-5.9e-07,0.0,0 STARLINK-3234,1 50815U 22001N   22180.20845967 -.00000059  00000-0  14428-4 0  9996,2 50815  53.2180 107.1637 0002041  47.4452 312.6713 15.08829518 26680,6917.9119999999975,95.438,541.189,538.365,0.0
50815.0,STARLINK-3234,PAYLOAD,2022-06-30 04:50:58,15.08844445,0.0002006,53.2181,102.7033,50.2987,309.8182,-0.00029284,-4.946e-05,0.0,0 STARLINK-3234,1 50815U 22001N   22181.20206808 -.00004946  00000-0 -29284-3 0  9997,2 50815  53.2181 102.7033 0002006  50.2987 309.8182 15.08844445 28101,6917.8669999999975,95.437,541.12,538.344,0.0
50815.0,STARLINK-3234,PAYLOAD,2022-06-30 19:09:27,15.08827338,0.0002089,53.2186,100.0271,50.0858,310.0318,1.1890999999999997e-05,-9.9e-07,0.0,0 STARLINK-3234,1 50815U 22001N   22181.79823569 -.00000099  00000-0  11891-4 0  9990,2 50815  53.2186 100.0271 0002089  50.0858 310.0318 15.08827338 28193,6917.919,95.438,541.229,538.339,0.0
